GOES 1 (SMS-C) [-]      
1 08366U 75100A   23014.43912486 -.00000149  00000+0  00000+0 0  9996
2 08366   7.7629 293.0749 0002391 312.9917 295.4567  1.00236176172674
GOES 2 [-]              
1 10061U 77048A   23013.72132649 -.00000256  00000+0  00000+0 0  9999
2 10061   9.3721 304.8918 0012463  24.9480 164.2804  0.99398029 33840
GOES 3 [-]              
1 10953U 78062A   23013.19563340 -.00000235  00000+0  00000+0 0  9990
2 10953   9.7206 309.5403 0000787 133.5380  56.0513  0.99362864116109
GOES 4 [-]              
1 11964U 80074A   23013.25931086 -.00000109  00000+0  00000+0 0  9992
2 11964  10.6949 313.3725 0032204  77.4754 100.2812  0.99228655115211
GOES 5 [-]              
1 12472U 81049A   23014.25422531 -.00000264  00000+0  00000+0 0  9993
2 12472  11.5927 324.8878 0000821 269.4977 262.9044  1.00256810110437
GOES 6 [-]              
1 14050U 83041A   23014.24815802 -.00000226  00000+0  00000+0 0  9995
2 14050  12.1832 330.2408 0002607 158.2151 354.8629  1.00243988203521
GOES 7 [-]              
1 17561U 87022A   23012.26534601 -.00000262  00000+0  00000+0 0  9993
2 17561  14.0630 346.8592 0004187  55.3950 131.8181  0.99905967114452
GOES 8 [-]              
1 23051U 94022A   23013.64409712  .00000040  00000+0  00000+0 0  9992
2 23051  13.3552  22.7108 0004423  18.0621 351.5297  0.98903673111766
GOES 9 [-]              
1 23581U 95025A   23013.61091194  .00000041  00000+0  00000+0 0  9993
2 23581  12.8509  23.1188 0004292 118.9354  64.4703  0.98798493100403
GOES 10 [-]             
1 24786U 97019A   23013.46108565 -.00000283  00000+0  00000+0 0  9999
2 24786  11.6570  29.3738 0027192 208.2623 193.4205  0.99127658 93671
GOES 11 [-]             
1 26352U 00022A   23006.96351337 -.00000221  00000+0  00000+0 0  9994
2 26352   9.1149  57.6931 0002528 218.3131 163.0809  0.99045202 40025
GOES 12 [-]             
1 26871U 01031A   23013.54498362 -.00000182  00000+0  00000+0 0  9999
2 26871   9.8948  46.7969 0005141 306.1458 257.5142  0.99137023 78367
EWS-G1 (GOES 13) [+]    
1 29155U 06018A   23013.88139568  .00000057  00000+0  00000+0 0  9994
2 29155   1.1181  92.9185 0004925 163.2521 235.8191  1.00265482 30842
GOES 14 [B]             
1 35491U 09033A   23014.19887270 -.00000071  00000+0  00000+0 0  9996
2 35491   0.0878 239.1525 0016989 349.3318 212.1128  1.00269703 49624
GOES 15 [B]             
1 36411U 10008A   23014.48303685  .00000076  00000+0  00000+0 0  9992
2 36411   0.0393 298.5914 0002761 254.9260 325.9778  1.00266461 47125
GOES 16 [+]             
1 41866U 16071A   23013.36798331 -.00000228  00000+0  00000+0 0  9990
2 41866   0.0733 249.5996 0000823  81.5508 198.7109  1.00271253 22576
GOES 17 [+]             
1 43226U 18022A   23010.68452196  .00000113  00000+0  00000+0 0  9990
2 43226   0.0067 160.8990 0000528 160.1134 258.0183  1.00273520 17865
GOES 18 [+]             
1 51850U 22021A   23007.79750510  .00000109  00000+0  00000+0 0  9990
2 51850   0.0091 273.9665 0000967   4.0073 339.2774  1.00272787  3209
